OBJECT_NAME,OBJECT_ID,EPOCH,MEAN_MOTION,ECCENTRICITY,INCLINATION,RA_OF_ASC_NODE,ARG_OF_PERICENTER,MEAN_ANOMALY,EPHEMERIS_TYPE,CLASSIFICATION_TYPE,NORAD_CAT_ID,ELEMENT_SET_NO,REV_AT_EPOCH,BSTAR,MEAN_MOTION_DOT,MEAN_MOTION_DDOT
STARLINK-31683,2024-076K,2026-07-12T21:38:28.603680,15.27577444,.00009884,43.0032,21.7442,247.6639,112.4108,0,U,59573,999,12565,.30653239E-4,.582E-5,0
STARLINK-31751,2024-076L,2026-07-12T20:52:26.361120,15.27574539,.00013202,43.0011,22.3780,255.0677,105.0029,0,U,59574,999,12564,-.21350071E-4,-.849E-5,0
STARLINK-31510,2024-076M,2026-07-12T20:27:13.599936,15.27579660,.00012848,43.0025,18.7831,267.3266,92.7439,0,U,59575,999,12568,.23754299E-4,.392E-5,0
STARLINK-31663,2024-076N,2026-07-12T22:21:01.924128,15.27586849,.00013959,43.0036,21.9629,268.3773,91.6919,0,U,59576,999,12565,.44918703E-4,.974E-5,0
STARLINK-31692,2024-076P,2026-07-12T21:39:03.647520,15.35947411,.00114147,43.0003,19.1335,282.1864,77.7713,0,U,59577,999,12568,.14942505E-2,.53638E-3,0
STARLINK-31685,2024-076Q,2026-07-12T21:12:35.438400,15.27611360,.00010757,43.0009,21.6052,268.4152,91.6576,0,U,59578,999,12565,-.14217185E-3,-.4176E-4,0
STARLINK-31686,2024-076R,2026-07-12T21:18:07.445952,15.27575457,.0001219,43.0039,21.6333,261.0436,99.0278,0,U,59579,999,12565,.12891434E-4,.93E-6,0
STARLINK-31668,2024-076S,2026-07-12T21:01:28.212672,15.27580299,.00010223,43.0000,21.5506,254.6080,105.4659,0,U,59580,999,12565,.34625404E-4,.691E-5,0
STARLINK-31690,2024-076T,2026-07-12T12:07:59.865600,15.27587823,.00005503,43.0003,23.9333,56.3268,303.7636,0,U,59581,999,12560,.51685931E-4,.1161E-4,0
STARLINK-31701,2024-076U,2026-07-12T20:21:01.820736,15.27683329,.00012808,43.0048,22.2022,289.6702,70.4011,0,U,59582,999,12555,.19186106E-2,.53082E-3,0
STARLINK-31697,2024-076V,2026-07-12T21:31:03.811296,15.27577342,.00020544,43.0060,21.6910,252.4956,107.5672,0,U,59583,999,12556,.50809402E-4,.1136E-4,0
STARLINK-31662,2024-076W,2026-07-12T22:04:22.701216,15.27582729,.00012834,43.0040,21.8777,258.8225,101.2483,0,U,59584,999,12565,.48196167E-4,.1064E-4,0
STARLINK-31702,2024-076X,2026-07-08T07:03:19.761408,15.27585477,.00011605,43.0006,48.2230,277.6277,82.4443,0,U,59585,999,12494,.55715724E-4,.1272E-4,0
STARLINK-31704,2024-076Y,2026-07-13T07:55:06.680352,15.55615619,.00237823,42.9886,318.6646,346.5004,13.5219,0,U,59586,999,12640,.2160085E-2,.156663E-2,0
NEONSAT-1,2024-077A,2026-07-13T06:47:09.146400,15.39201895,.00065839,97.3495,278.3689,300.8562,59.2035,0,U,59587,999,12374,.21912172E-3,.8439E-4,0
ACS3,2024-077B,2026-07-11T17:46:17.954112,13.95349463,.01210111,97.1723,106.0854,40.7850,320.2298,0,U,59588,999,11146,.713075E-2,.10248E-3,0
GSAT0225 (GALILEO 29),2024-079A,2026-07-12T22:10:02.693856,1.70473595,.00005761,55.1342,100.3610,333.1665,207.5558,0,U,59598,999,1375,0,-.32E-6,0
GSAT0227 (GALILEO 30),2024-079C,2026-07-11T01:16:08.747328,1.70473759,.00027807,55.1286,100.4115,67.2139,292.8235,0,U,59600,999,1377,0,-.27E-6,0
STARLINK-31770,2024-080A,2026-07-12T23:57:18.932256,15.27579577,.00016428,43.0046,50.5189,267.2082,92.8582,0,U,59601,999,12490,.6618523E-5,-.8E-6,0
STARLINK-31778,2024-080B,2026-07-12T23:59:51.592416,15.27588949,.00016041,43.0028,47.0704,269.7180,90.3488,0,U,59602,999,12373,-.22435694E-4,-.88E-5,0
STARLINK-31776,2024-080C,2026-07-12T23:54:46.223712,15.27576366,.00012339,43.0042,53.9663,280.6368,79.4345,0,U,59603,999,12365,-.14457636E-4,-.66E-5,0
STARLINK-31765,2024-080D,2026-07-12T23:15:27.645408,15.27572302,.0001267,43.0041,46.8416,278.5191,81.5517,0,U,59604,999,12373,.23898597E-4,.395E-5,0
STARLINK-31767,2024-080E,2026-07-12T23:46:12.128160,15.27584639,.00012766,43.0058,50.4632,276.9001,83.1705,0,U,59605,999,12369,.33700594E-4,.665E-5,0
STARLINK-31782,2024-080F,2026-07-13T00:09:33.961248,15.27578418,.00021626,43.0063,54.0397,261.0657,98.9950,0,U,59606,999,12365,-.5525929E-5,-.415E-5,0
STARLINK-31755,2024-080G,2026-07-13T00:15:07.670880,15.27567637,.00013424,43.0054,54.0697,254.8092,105.2611,0,U,59607,999,12365,-.4668144E-4,-.1546E-4,0
STARLINK-31585,2024-080H,2026-07-13T00:07:01.390080,15.27591479,.00020556,43.0013,46.2426,266.8980,93.1637,0,U,59608,999,12375,.64929498E-4,.1525E-4,0
STARLINK-31667,2024-080J,2026-07-12T22:38:27.662208,15.27565135,.00011619,42.9993,46.6432,281.7851,78.2870,0,U,59609,999,12373,-.40589822E-4,-.1378E-4,0
STARLINK-31729,2024-080K,2026-07-12T23:52:27.524928,15.27590975,.00012553,43.0030,47.0332,270.2527,89.8181,0,U,59610,999,12373,.73962656E-4,.1774E-4,0
STARLINK-31448,2024-080L,2026-07-12T23:30:15.469344,15.27584712,.00014169,43.0080,46.9169,284.9957,75.0738,0,U,59611,999,12373,.32156697E-4,.623E-5,0
STARLINK-31748,2024-080M,2026-07-12T23:02:30.256224,15.27577487,.00008902,43.0015,46.7750,264.7322,95.3428,0,U,59612,999,12490,.19410636E-4,.272E-5,0
