STARLINK-31683          
1 59573U 24076K   26193.90171995  .00000582  00000+0  30653-4 0  9995
2 59573  43.0032  21.7442 0000988 247.6639 112.4108 15.27577444125657
STARLINK-31751          
1 59574U 24076L   26193.86974955 -.00000849  00000+0 -21350-4 0  9990
2 59574  43.0011  22.3780 0001320 255.0677 105.0029 15.27574539125644
STARLINK-31510          
1 59575U 24076M   26193.85224074  .00000392  00000+0  23754-4 0  9991
2 59575  43.0025  18.7831 0001284 267.3266  92.7439 15.27579660125686
STARLINK-31663          
1 59576U 24076N   26193.93127227  .00000974  00000+0  44919-4 0  9995
2 59576  43.0036  21.9629 0001395 268.3773  91.6919 15.27586849125652
STARLINK-31692          
1 59577U 24076P   26193.90212555  .00053638  00000+0  14943-2 0  9999
2 59577  43.0003  19.1335 0011414 282.1864  77.7713 15.35947411125683
STARLINK-31685          
1 59578U 24076Q   26193.88374350 -.00004176  00000+0 -14217-3 0  9999
2 59578  43.0009  21.6052 0001075 268.4152  91.6576 15.27611360125654
STARLINK-31686          
1 59579U 24076R   26193.88758618  .00000093  00000+0  12891-4 0  9992
2 59579  43.0039  21.6333 0001219 261.0436  99.0278 15.27575457125651
STARLINK-31668          
1 59580U 24076S   26193.87602098  .00000691  00000+0  34625-4 0  9996
2 59580  43.0000  21.5506 0001022 254.6080 105.4659 15.27580299125652
STARLINK-31690          
1 59581U 24076T   26193.50555400  .00001161  00000+0  51686-4 0  9990
2 59581  43.0003  23.9333 0000550  56.3268 303.7636 15.27587823125603
STARLINK-31701          
1 59582U 24076U   26193.84793774  .00053082  00000+0  19186-2 0  9992
2 59582  43.0048  22.2022 0001280 289.6702  70.4011 15.27683329125552
STARLINK-31697          
1 59583U 24076V   26193.89657189  .00001136  00000+0  50809-4 0  9999
2 59583  43.0060  21.6910 0002054 252.4956 107.5672 15.27577342125568
STARLINK-31662          
1 59584U 24076W   26193.91970719  .00001064  00000+0  48196-4 0  9996
2 59584  43.0040  21.8777 0001283 258.8225 101.2483 15.27582729125658
STARLINK-31702          
1 59585U 24076X   26189.29397872  .00001272  00000+0  55716-4 0  9993
2 59585  43.0006  48.2230 0001160 277.6277  82.4443 15.27585477124948
STARLINK-31704          
1 59586U 24076Y   26194.32993843  .00156663  00000+0  21601-2 0  9993
2 59586  42.9886 318.6646 0023782 346.5004  13.5219 15.55615619126408
NEONSAT-1               
1 59587U 24077A   26194.28274475  .00008439  00000+0  21912-3 0  9996
2 59587  97.3495 278.3689 0006583 300.8562  59.2035 15.39201895123746
ACS3                    
1 59588U 24077B   26192.74048558  .00010248  00000+0  71307-2 0  9990
2 59588  97.1723 106.0854 0121011  40.7850 320.2298 13.95349463111466
GSAT0225 (GALILEO 29)   
1 59598U 24079A   26193.92364229 -.00000032  00000+0  00000+0 0  9990
2 59598  55.1342 100.3610 0000576 333.1665 207.5558  1.70473595 13753
GSAT0227 (GALILEO 30)   
1 59600U 24079C   26192.05287902 -.00000027  00000+0  00000+0 0  9993
2 59600  55.1286 100.4115 0002780  67.2139 292.8235  1.70473759 13778
STARLINK-31770          
1 59601U 24080A   26193.99813579 -.00000080  00000+0  66185-5 0  9996
2 59601  43.0046  50.5189 0001642 267.2082  92.8582 15.27579577124903
STARLINK-31778          
1 59602U 24080B   26193.99990269 -.00000880  00000+0 -22436-4 0  9998
2 59602  43.0028  47.0704 0001604 269.7180  90.3488 15.27588949123733
STARLINK-31776          
1 59603U 24080C   26193.99636833 -.00000660  00000+0 -14458-4 0  9994
2 59603  43.0042  53.9663 0001233 280.6368  79.4345 15.27576366123659
STARLINK-31765          
1 59604U 24080D   26193.96906997  .00000395  00000+0  23899-4 0  9995
2 59604  43.0041  46.8416 0001267 278.5191  81.5517 15.27572302123733
STARLINK-31767          
1 59605U 24080E   26193.99041815  .00000665  00000+0  33701-4 0  9991
2 59605  43.0058  50.4632 0001276 276.9001  83.1705 15.27584639123693
STARLINK-31782          
1 59606U 24080F   26194.00664307 -.00000415  00000+0 -55259-5 0  9990
2 59606  43.0063  54.0397 0002162 261.0657  98.9950 15.27578418123655
STARLINK-31755          
1 59607U 24080G   26194.01050545 -.00001546  00000+0 -46681-4 0  9999
2 59607  43.0054  54.0697 0001342 254.8092 105.2611 15.27567637123658
STARLINK-31585          
1 59608U 24080H   26194.00487720  .00001525  00000+0  64929-4 0  9998
2 59608  43.0013  46.2426 0002055 266.8980  93.1637 15.27591479123753
STARLINK-31667          
1 59609U 24080J   26193.94337572 -.00001378  00000+0 -40590-4 0  9996
2 59609  42.9993  46.6432 0001161 281.7851  78.2870 15.27565135123731
STARLINK-31729          
1 59610U 24080K   26193.99476302  .00001774  00000+0  73963-4 0  9996
2 59610  43.0030  47.0332 0001255 270.2527  89.8181 15.27590975123731
STARLINK-31448          
1 59611U 24080L   26193.97934571  .00000623  00000+0  32157-4 0  9994
2 59611  43.0080  46.9169 0001416 284.9957  75.0738 15.27584712123738
STARLINK-31748          
1 59612U 24080M   26193.96007241  .00000272  00000+0  19411-4 0  9997
2 59612  43.0015  46.7750 0000890 264.7322  95.3428 15.27577487124900
